[{"OBJECT_NAME":"ONEWEB-0413","OBJECT_ID":"2021-132X","EPOCH":"2026-03-09T17:04:06.653568","MEAN_MOTION":13.18686655,"ECCENTRICITY":0.00016596,"INCLINATION":87.9241,"RA_OF_ASC_NODE":355.22,"ARG_OF_PERICENTER":87.5195,"MEAN_ANOMALY":272.6127,"EPHEMERIS_TYPE":0,"CLASSIFICATION_TYPE":"U","NORAD_CAT_ID":50490,"ELEMENT_SET_NO":999,"REV_AT_EPOCH":20848,"BSTAR":-6.2448772e-5,"MEAN_MOTION_DOT":-1.2e-7,"MEAN_MOTION_DDOT":0},{"OBJECT_NAME":"THORAD AGENA D DEB","OBJECT_ID":"1970-025JN","EPOCH":"2026-03-09T18:21:50.648256","MEAN_MOTION":13.56832424,"ECCENTRICITY":0.01865745,"INCLINATION":99.308,"RA_OF_ASC_NODE":164.2925,"ARG_OF_PERICENTER":329.8722,"MEAN_ANOMALY":158.5514,"EPHEMERIS_TYPE":0,"CLASSIFICATION_TYPE":"U","NORAD_CAT_ID":5129,"ELEMENT_SET_NO":999,"REV_AT_EPOCH":72015,"BSTAR":0.0023447337,"MEAN_MOTION_DOT":1.818e-5,"MEAN_MOTION_DDOT":0}]
